OBJECT_NAME,OBJECT_ID,EPOCH,MEAN_MOTION,ECCENTRICITY,INCLINATION,RA_OF_ASC_NODE,ARG_OF_PERICENTER,MEAN_ANOMALY,EPHEMERIS_TYPE,CLASSIFICATION_TYPE,NORAD_CAT_ID,ELEMENT_SET_NO,REV_AT_EPOCH,BSTAR,MEAN_MOTION_DOT,MEAN_MOTION_DDOT
COSMO-SKYMED 1,2007-023A,2026-06-21T03:29:07.117728,14.97116981,.0001591,97.8853,4.0340,96.8472,263.2930,0,U,31598,999,3038,.2066E-3,.2324E-4,0
COSMOS 2428,2007-029A,2026-06-19T21:42:48.741120,14.12927887,.00071255,70.9350,348.7715,129.7553,230.4196,0,U,31792,999,97853,-.23180398E-4,-.91E-6,0
SL-16 R/B,2007-029B,2026-06-20T08:29:49.387776,14.14855736,.000239,70.9771,316.5706,262.9025,119.5421,0,U,31793,999,97989,.18759E-4,-.12E-6,0
KORONAS-FOTON,2009-003A,2026-06-20T10:40:26.686848,15.45780361,.0011982,82.4290,168.8611,137.0460,223.1726,0,U,33504,999,96160,.20622E-3,.10047E-3,0
CZ-2C R/B,2011-030B,2026-06-20T10:15:42.199200,14.81478072,.0052789,97.8654,126.7551,17.5996,94.3487,0,U,37731,999,80530,.12584E-3,.955E-5,0
H-2A R/B,2012-025E,2026-06-20T10:26:14.989344,14.95733305,.0043436,98.4832,146.8481,338.4525,21.4864,0,U,38341,999,76357,.14369E-3,.1559E-4,0
SHIJIAN-16 (SJ-16),2013-057A,2026-06-21T04:39:21.739968,14.92612286,.001672,74.9732,349.0933,221.4918,138.5002,0,U,39358,999,68694,.10968E-3,.1102E-4,0
SL-4 R/B,2014-021B,2026-06-20T08:51:29.718144,15.42008265,.0091103,51.6042,195.1816,117.5578,243.4698,0,U,39679,999,67210,.16837E-3,.801E-4,0
ALOS-2,2014-029A,2026-06-21T04:43:52.790592,14.79466436,.0001621,97.9219,269.3033,92.8155,267.3242,0,U,39766,999,65217,.12234E-3,.862E-5,0
YAOGAN-29,2015-069A,2026-06-21T03:48:07.988256,14.83086100,.0002378,98.0023,200.7978,47.7090,312.4324,0,U,41038,999,57121,.1458E-5,-.42E-6,0
ASTRO-H (HITOMI),2016-012A,2026-06-20T01:46:28.635456,15.10521114,.00097762,30.9996,55.5433,282.4746,77.4798,0,U,41337,999,56772,.10927049E-3,.1943E-4,0
HXMT (HUIYAN),2017-034A,2026-06-21T05:06:07.675776,15.18495415,.003115,43.0126,160.6256,173.0127,187.1161,0,U,42758,999,49827,.11348E-3,.2165E-4,0
SAOCOM 1A,2018-076A,2026-06-21T04:28:49.439712,14.82148479,.0001556,97.8886,358.8764,79.7137,280.4252,0,U,43641,999,41669,-.35748E-4,-.337E-5,0
H-2A R/B,2018-084L,2026-06-20T10:20:24.836064,15.45261190,.0023158,98.8570,51.0288,29.5846,330.6703,0,U,43682,999,42162,.3652E-3,.17446E-3,0
SAOCOM 1B,2020-059A,2026-06-21T03:36:28.501632,14.82150069,.0001633,97.8890,357.9358,84.4484,275.6915,0,U,46265,999,31407,.95294E-4,.706E-5,0
CSS (TIANHE),2021-035A,2026-06-20T10:22:16.737024,15.60937952,.0007384,41.4693,302.2526,105.8714,254.2939,0,U,48274,999,29367,.24268E-3,.20661E-3,0
COSMOS 2550,2021-056A,2026-06-21T04:44:12.333408,15.33824835,.0008371,67.1428,87.7756,268.5954,91.4242,0,U,48865,999,27933,.17106E-3,.5439E-4,0
CZ-2C R/B,2022-058K,2026-06-20T07:30:32.952096,15.62055000,.00324,50.1848,147.2516,280.9513,78.7816,0,U,52794,999,22613,.37678E-3,.34149E-3,0
CZ-2C R/B,2022-132E,2026-06-19T22:53:42.144000,15.71789278,.00155407,97.2906,178.1016,75.9448,284.3542,0,U,54039,999,20638,.41475501E-3,.54114E-3,0
GSLV R/B,2022-138AN,2026-06-20T09:25:22.996128,14.97268932,.0023267,87.3806,131.9079,132.8603,227.4588,0,U,54149,999,19929,.15597E-3,.1845E-4,0
XRISM,2023-137A,2026-06-20T03:50:59.137152,15.12489019,.00079222,31.0032,340.3423,353.3613,6.6920,0,U,57800,999,15331,.22708659E-3,.4151E-4,0
ACS3,2024-077B,2026-06-20T08:43:14.423232,13.94333623,.0082058,97.1691,89.4458,61.6026,299.3382,0,U,59588,999,10848,.29681E-1,.40774E-3,0
CZ-8A R/B,2025-231K,2026-06-20T08:04:00.084576,14.30155599,.0116482,50.0053,25.9191,235.0958,123.8966,0,U,66004,999,3539,.47222E-4,-.31E-6,0
SZ-21 MODULE,2025-246C,2026-06-20T09:11:44.972160,15.76651737,.0005787,41.4727,287.4171,13.1539,346.9456,0,U,66515,999,3424,.25384E-3,.41738E-3,0
